[{"OBJECT_NAME":"STARLINK-5421","OBJECT_ID":"2022-175AT","EPOCH":"2026-03-09T05:53:29.901408","MEAN_MOTION":15.08841272,"ECCENTRICITY":0.00013445,"INCLINATION":53.2189,"RA_OF_ASC_NODE":21.0777,"ARG_OF_PERICENTER":87.0916,"MEAN_ANOMALY":273.023,"EPHEMERIS_TYPE":0,"CLASSIFICATION_TYPE":"U","NORAD_CAT_ID":54799,"ELEMENT_SET_NO":999,"REV_AT_EPOCH":18020,"BSTAR":5.3428214e-5,"MEAN_MOTION_DOT":5.63e-6,"MEAN_MOTION_DDOT":0},{"OBJECT_NAME":"TITAN 3C TRANSTAGE DEB","OBJECT_ID":"1965-082EA","EPOCH":"2026-03-09T23:10:17.723424","MEAN_MOTION":15.08375165,"ECCENTRICITY":0.00122709,"INCLINATION":32.3951,"RA_OF_ASC_NODE":291.2548,"ARG_OF_PERICENTER":351.0252,"MEAN_ANOMALY":9.0191,"EPHEMERIS_TYPE":0,"CLASSIFICATION_TYPE":"U","NORAD_CAT_ID":1835,"ELEMENT_SET_NO":999,"REV_AT_EPOCH":23237,"BSTAR":0.00035954995,"MEAN_MOTION_DOT":5.778e-5,"MEAN_MOTION_DDOT":0}]
